NORAD_CAT_ID,OBJECT_NAME,OBJECT_TYPE,EPOCH,MEAN_MOTION,ECCENTRICITY,INCLINATION,RA_OF_ASC_NODE,ARG_OF_PERICENTER,MEAN_ANOMALY,BSTAR,MEAN_MOTION_DOT,MEAN_MOTION_DDOT,TLE_LINE0,TLE_LINE1,TLE_LINE2,SEMIMAJOR_AXIS,PERIOD,APOGEE,PERIGEE,DECAYED
51998.0,STARLINK-3618,PAYLOAD,2023-01-31 03:09:46,15.0883349,0.0001381,53.2167,67.8655,101.4524,258.6623,-2.8262e-05,-7.38e-06,0.0,0 STARLINK-3618,1 51998U 22025AU  23031.13178754 -.00000738  00000-0 -28262-4 0  9992,2 51998  53.2167  67.8655 0001381 101.4524 258.6623 15.08833490 51307,6917.9,95.438,540.721,538.81,0.0
51998.0,STARLINK-3618,PAYLOAD,2023-01-31 11:06:41,15.0883776,0.0001358,53.2174,66.3783,98.8067,261.3079,2.3707e-06,-2.5e-06,0.0,0 STARLINK-3618,1 51998U 22025AU  23031.46298418 -.00000250  00000-0  23707-5 0  9996,2 51998  53.2174  66.3783 0001358  98.8067 261.3079 15.08837760 49842,6917.887,95.438,540.692,538.813,0.0
51998.0,STARLINK-3618,PAYLOAD,2023-01-31 19:03:37,15.08840562,0.0001503,53.2184,64.8906,99.0104,261.1058,3.6221e-06,-2.3e-06,0.0,0 STARLINK-3618,1 51998U 22025AU  23031.79418281 -.00000230  00000-0  36221-5 0  9997,2 51998  53.2184  64.8906 0001503  99.0104 261.1058 15.08840562 51404,6917.879,95.438,540.783,538.704,0.0
51998.0,STARLINK-3618,PAYLOAD,2023-02-01 09:22:05,15.08839455,0.0001399,53.2174,62.2163,101.6886,258.4263,3.4358e-05,2.59e-06,0.0,0 STARLINK-3618,1 51998U 22025AU  23032.39034333  .00000259  00000-0  34358-4 0  9994,2 51998  53.2174  62.2163 0001399 101.6886 258.4263 15.08839455 49986,6917.882,95.438,540.715,538.779,0.0
51998.0,STARLINK-3618,PAYLOAD,2023-02-02 10:48:15,15.08841498,0.0001239,53.2174,57.4569,91.1749,268.9385,2.08e-05,4.3e-07,0.0,0 STARLINK-3618,1 51998U 22025AU  23033.45018444  .00000043  00000-0  20800-4 0  9995,2 51998  53.2174  57.4569 0001239  91.1749 268.9385 15.08841498 50147,6917.876,95.437,540.598,538.884,0.0
51998.0,STARLINK-3618,PAYLOAD,2023-02-03 07:28:16,15.08843852,0.0001279,53.2177,53.5895,94.6602,265.4537,-4.5216e-05,-1.008e-05,0.0,0 STARLINK-3618,1 51998U 22025AU  23034.31130618 -.00001008  00000-0 -45216-4 0  9991,2 51998  53.2177  53.5895 0001279  94.6602 265.4537 15.08843852 50270,6917.869,95.437,540.618,538.849,0.0
51998.0,STARLINK-3618,PAYLOAD,2023-02-04 10:29:49,15.08849559,0.0001208,53.2168,48.5354,98.299,261.8139,9.5201e-05,1.228e-05,0.0,0 STARLINK-3618,1 51998U 22025AU  23035.43737578  .00001228  00000-0  95201-4 0  9994,2 51998  53.2168  48.5354 0001208  98.2990 261.8139 15.08849559 51950,6917.851,95.437,540.552,538.88,0.0
51998.0,STARLINK-3618,PAYLOAD,2023-02-04 23:12:55,15.08830424,9.49e-05,53.2171,46.1583,100.3776,259.7323,-3.3877e-05,-8.27e-06,0.0,0 STARLINK-3618,1 51998U 22025AU  23035.96731210 -.00000827  00000-0 -33877-4 0  9996,2 51998  53.2171  46.1583 0000949 100.3776 259.7323 15.08830424 52032,6917.91,95.438,540.431,539.118,0.0
51998.0,STARLINK-3618,PAYLOAD,2023-02-05 07:09:51,15.0883639,0.0001177,53.2174,44.672,103.8283,256.284,-1.831e-05,-5.79e-06,0.0,0 STARLINK-3618,1 51998U 22025AU  23036.29850923 -.00000579  00000-0 -18310-4 0  9995,2 51998  53.2174  44.6720 0001177 103.8283 256.2840 15.08836390 52085,6917.891,95.438,540.571,538.942,0.0
51998.0,STARLINK-3618,PAYLOAD,2023-02-06 07:00:37,15.08844728,0.0001193,53.2177,40.2113,112.1202,247.9917,1.0907e-05,-1.14e-06,0.0,0 STARLINK-3618,1 51998U 22025AU  23037.29210340 -.00000114  00000-0  10907-4 0  9997,2 51998  53.2177  40.2113 0001193 112.1202 247.9917 15.08844728 52231,6917.866,95.437,540.556,538.906,0.0
51998.0,STARLINK-3618,PAYLOAD,2023-02-06 11:46:46,15.08851884,0.0001114,53.2166,39.3171,115.5743,244.5364,6.1014e-05,6.84e-06,0.0,0 STARLINK-3618,1 51998U 22025AU  23037.49081625  .00000684  00000-0  61014-4 0  9997,2 51998  53.2166  39.3171 0001114 115.5743 244.5364 15.08851884 50757,6917.844,95.437,540.48,538.938,0.0
51998.0,STARLINK-3618,PAYLOAD,2023-02-07 03:40:39,15.08834513,0.0001,53.2183,36.3469,90.9391,269.1716,5.5038e-05,5.88e-06,0.0,0 STARLINK-3618,1 51998U 22025AU  23038.15322997  .00000588  00000-0  55038-4 0  9993,2 51998  53.2183  36.3469 0001000  90.9391 269.1716 15.08834513 52365,6917.897,95.438,540.454,539.07,0.0
51998.0,STARLINK-3618,PAYLOAD,2023-02-07 06:51:24,15.088413,9.17e-05,53.2173,35.7518,95.0901,265.0196,0.00010872,1.443e-05,0.0,0 STARLINK-3618,1 51998U 22025AU  23038.28570436  .00001443  00000-0  10872-3 0  9997,2 51998  53.2173  35.7518 0000917  95.0901 265.0196 15.08841300 52382,6917.876,95.437,540.376,539.107,0.0
51998.0,STARLINK-3618,PAYLOAD,2023-02-07 11:37:33,15.08851025,0.0001103,53.2179,34.8569,111.9583,248.1527,0.00017485,2.497e-05,0.0,0 STARLINK-3618,1 51998U 22025AU  23038.48441546  .00002497  00000-0  17485-3 0  9995,2 51998  53.2179  34.8569 0001103 111.9583 248.1527 15.08851025 50907,6917.847,95.437,540.475,538.949,0.0
51998.0,STARLINK-3618,PAYLOAD,2023-02-08 08:17:34,15.08850217,0.0001406,53.2185,30.9952,106.0996,254.0151,0.00013927,1.93e-05,0.0,0 STARLINK-3618,1 51998U 22025AU  23039.34553996  .00001930  00000-0  13927-3 0  9992,2 51998  53.2185  30.9952 0001406 106.0996 254.0151 15.08850217 52549,6917.849,95.437,540.687,538.742,0.0
51998.0,STARLINK-3618,PAYLOAD,2023-02-09 03:22:13,15.0883431,0.0001032,53.2163,27.4225,80.5542,279.5567,-2.4359e-05,-6.75e-06,0.0,0 STARLINK-3618,1 51998U 22025AU  23040.14043690 -.00000675  00000-0 -24359-4 0  9996,2 51998  53.2163  27.4225 0001032  80.5542 279.5567 15.08834310 52669,6917.898,95.438,540.477,539.049,0.0
51998.0,STARLINK-3618,PAYLOAD,2023-02-09 08:08:22,15.08839636,0.0001426,53.2172,26.5302,75.8951,284.2199,-1.8353e-06,-3.17e-06,0.0,0 STARLINK-3618,1 51998U 22025AU  23040.33915001 -.00000317  00000-0 -18353-5 0  9992,2 51998  53.2172  26.5302 0001426  75.8951 284.2199 15.08839636 51189,6917.882,95.438,540.733,538.76,0.0
51998.0,STARLINK-3618,PAYLOAD,2023-02-09 11:19:08,15.08843404,0.0001686,53.2165,25.9359,64.2556,295.861,4.24e-05,3.87e-06,0.0,0 STARLINK-3618,1 51998U 22025AU  23040.47162961  .00000387  00000-0  42400-4 0  9990,2 51998  53.2165  25.9359 0001686  64.2556 295.8610 15.08843404 52711,6917.87,95.437,540.901,538.569,0.0
51998.0,STARLINK-3618,PAYLOAD,2023-02-10 01:37:37,15.08837954,9.3e-05,53.2197,23.259,130.6683,229.439,-0.00014812,-2.644e-05,0.0,0 STARLINK-3618,1 51998U 22025AU  23041.06779171 -.00002644  00000-0 -14812-3 0  9998,2 51998  53.2197  23.2590 0000930 130.6683 229.4390 15.08837954 51297,6917.887,95.438,540.395,539.108,0.0
51998.0,STARLINK-3618,PAYLOAD,2023-02-10 07:59:08,15.08861747,0.0001345,53.2169,22.071,90.0773,270.0374,0.00033742,5.089e-05,0.0,0 STARLINK-3618,1 51998U 22025AU  23041.33274092  .00005089  00000-0  33742-3 0  9997,2 51998  53.2169  22.0710 0001345  90.0773 270.0374 15.08861747 52840,6917.814,95.436,540.609,538.748,0.0
51998.0,STARLINK-3618,PAYLOAD,2023-02-11 01:28:23,15.08844784,9.2e-05,53.2169,18.7978,124.6846,235.4233,0.00010913,1.45e-05,0.0,0 STARLINK-3618,1 51998U 22025AU  23042.06138851  .00001450  00000-0  10913-3 0  9993,2 51998  53.2169  18.7978 0000920 124.6846 235.4233 15.08844784 52954,6917.866,95.437,540.367,539.094,0.0
51998.0,STARLINK-3618,PAYLOAD,2023-02-11 09:25:18,15.0887838,0.000128,53.2166,17.3138,107.3607,252.7526,0.00091389,0.00014302,0.0,0 STARLINK-3618,1 51998U 22025AU  23042.39257839  .00014302  00000-0  91389-3 0  9993,2 51998  53.2166  17.3138 0001280 107.3607 252.7526 15.08878380 53000,6917.763,95.435,540.514,538.743,0.0
51998.0,STARLINK-3618,PAYLOAD,2023-02-12 02:54:34,15.08842017,0.0001405,53.2179,14.0451,101.0083,259.1067,0.00038542,5.852e-05,0.0,0 STARLINK-3618,1 51998U 22025AU  23043.12122981  .00005852  00000-0  38542-3 0  9996,2 51998  53.2179  14.0451 0001405 101.0083 259.1067 15.08842017 53115,6917.874,95.437,540.711,538.767,0.0
51998.0,STARLINK-3618,PAYLOAD,2023-02-12 09:16:06,15.08868821,0.0001241,53.2168,12.8536,94.2171,265.8963,0.0024529,0.00038997,0.0,0 STARLINK-3618,1 51998U 22025AU  23043.38618750  .00038997  00000-0  24529-2 0  9993,2 51998  53.2168  12.8536 0001241  94.2171 265.8963 15.08868821 53156,6917.792,95.436,540.516,538.799,0.0
51998.0,STARLINK-3618,PAYLOAD,2023-02-13 09:06:55,15.08841445,0.0001219,53.2168,8.3931,78.3846,281.7282,0.0027507,0.00043763,0.0,0 STARLINK-3618,1 51998U 22025AU  23044.37981133  .00043763  00000-0  27507-2 0  9997,2 51998  53.2168   8.3931 0001219  78.3846 281.7282 15.08841445 53303,6917.876,95.437,540.584,538.898,0.0
51998.0,STARLINK-3618,PAYLOAD,2023-02-14 04:11:32,15.08890327,9.5e-05,53.217,4.8247,79.6099,280.5001,0.0031315,0.00049972,0.0,0 STARLINK-3618,1 51998U 22025AU  23045.17468472  .00049972  00000-0  31315-2 0  9992,2 51998  53.2170   4.8247 0000950  79.6099 280.5001 15.08890327 53424,6917.727,95.434,540.249,538.934,0.0
51998.0,STARLINK-3618,PAYLOAD,2023-02-14 13:43:50,15.08913608,0.0001174,53.2167,3.0412,300.3735,59.7141,0.0032817,0.00052435,0.0,0 STARLINK-3618,1 51998U 22025AU  23045.57211055  .00052435  00000-0  32817-2 0  9995,2 51998  53.2167   3.0412 0001174 300.3735  59.7141 15.08913608 51972,6917.655,95.433,540.333,538.708,0.0
51998.0,STARLINK-3618,PAYLOAD,2023-02-15 04:02:19,15.08857481,0.0001247,53.2163,0.3645,72.0222,288.0906,0.0030359,0.00048383,0.0,0 STARLINK-3618,1 51998U 22025AU  23046.16828143  .00048383  00000-0  30359-2 0  9999,2 51998  53.2163   0.3645 0001247  72.0222 288.0906 15.08857481 53571,6917.827,95.436,540.555,538.829,0.0
51998.0,STARLINK-3618,PAYLOAD,2023-02-15 13:34:38,15.08855383,0.0001349,53.2161,358.5807,72.981,287.133,0.0031451,0.00050144,0.0,0 STARLINK-3618,1 51998U 22025AU  23046.56572172  .00050144  00000-0  31451-2 0  9993,2 51998  53.2161 358.5807 0001349  72.9810 287.1330 15.08855383 52122,6917.833,95.437,540.632,538.765,0.0
51998.0,STARLINK-3618,PAYLOAD,2023-02-15 21:31:33,15.08852436,0.0001219,53.2175,357.0919,74.949,285.1637,0.0013227,0.00020833,0.0,0 STARLINK-3618,1 51998U 22025AU  23046.89691960  .00020833  00000-0  13227-2 0  9999,2 51998  53.2175 357.0919 0001219  74.9490 285.1637 15.08852436 52176,6917.842,95.437,540.551,538.864,0.0
